{
  "type": "FeatureCollection",
  "features": [
    {
      "type": "Feature",
      "properties": {
        "norad_id": 33939,
        "name": "COSMOS 2251 DEB",
        "group": "cosmos-2251-debris",
        "lat": 5.732828951212178,
        "lon": -104.83188394732493,
        "alt_km": 570.0490798751298,
        "timestamp": "2025-12-14T14:39:29.762240+00:00",
        "meta_object_name": "COSMOS 2251 DEB",
        "meta_object_id": "1993-036EU",
        "meta_epoch": "2025-12-13T23:28:48.834336",
        "meta_mean_motion": 15.00028627,
        "meta_eccentricity": 0.00038656,
        "meta_inclination": 74.0063,
        "meta_ra_of_asc_node": 78.1053,
        "meta_arg_of_pericenter": 51.7547,
        "meta_mean_anomaly": 308.3987,
        "meta_ephemeris_type": 0,
        "meta_classification_type": "U",
        "meta_norad_cat_id": 33939,
        "meta_element_set_no": 999,
        "meta_rev_at_epoch": 88771,
        "meta_bstar": 0.0032080934,
        "meta_mean_motion_dot": 0.00040135,
        "meta_mean_motion_ddot": 0,
        "tle_line1": "1 33939U 93036EU  25347.97834299  .00040135  00000+0  32081-2 0  9998",
        "tle_line2": "2 33939  74.0063  78.1053 0003865  51.7547 308.3987 15.00028627887714"
      },
      "geometry": {
        "type": "Point",
        "coordinates": [
          -104.83188394732493,
          5.732828951212178
        ]
      }
    },
    {
      "type": "Feature",
      "properties": {
        "norad_id": 33940,
        "name": "COSMOS 2251 DEB",
        "group": "cosmos-2251-debris",
        "lat": 26.002781775947547,
        "lon": 147.95945100076008,
        "alt_km": 703.5279460433649,
        "timestamp": "2025-12-14T14:39:29.762250+00:00",
        "meta_object_name": "COSMOS 2251 DEB",
        "meta_object_id": "1993-036EV",
        "meta_epoch": "2025-12-13T21:09:55.620000",
        "meta_mean_motion": 14.58810971,
        "meta_eccentricity": 0.00112605,
        "meta_inclination": 74.0395,
        "meta_ra_of_asc_node": 141.322,
        "meta_arg_of_pericenter": 221.279,
        "meta_mean_anomaly": 299.676,
        "meta_ephemeris_type": 0,
        "meta_classification_type": "U",
        "meta_norad_cat_id": 33940,
        "meta_element_set_no": 999,
        "meta_rev_at_epoch": 88610,
        "meta_bstar": 0.0013048639,
        "meta_mean_motion_dot": 6.083e-05,
        "meta_mean_motion_ddot": 0,
        "tle_line1": "1 33940U 93036EV  25347.88189375  .00006083  00000+0  13049-2 0  9995",
        "tle_line2": "2 33940  74.0395 141.3220 0011260 221.2790 299.6760 14.58810971886101"
      },
      "geometry": {
        "type": "Point",
        "coordinates": [
          147.95945100076008,
          26.002781775947547
        ]
      }
    },
    {
      "type": "Feature",
      "properties": {
        "norad_id": 33942,
        "name": "COSMOS 2251 DEB",
        "group": "cosmos-2251-debris",
        "lat": 73.1650446051585,
        "lon": -17.534484643691247,
        "alt_km": 757.841794580575,
        "timestamp": "2025-12-14T14:39:29.762259+00:00",
        "meta_object_name": "COSMOS 2251 DEB",
        "meta_object_id": "1993-036EX",
        "meta_epoch": "2025-12-13T23:36:44.340192",
        "meta_mean_motion": 14.37990895,
        "meta_eccentricity": 0.00203771,
        "meta_inclination": 74.0366,
        "meta_ra_of_asc_node": 272.5374,
        "meta_arg_of_pericenter": 355.5442,
        "meta_mean_anomaly": 84.7595,
        "meta_ephemeris_type": 0,
        "meta_classification_type": "U",
        "meta_norad_cat_id": 33942,
        "meta_element_set_no": 999,
        "meta_rev_at_epoch": 88152,
        "meta_bstar": 0.00031644238,
        "meta_mean_motion_dot": 9.33e-06,
        "meta_mean_motion_ddot": 0,
        "tle_line1": "1 33942U 93036EX  25347.98384653  .00000933  00000+0  31644-3 0  9994",
        "tle_line2": "2 33942  74.0366 272.5374 0020377 355.5442  84.7595 14.37990895881523"
      },
      "geometry": {
        "type": "Point",
        "coordinates": [
          -17.534484643691247,
          73.1650446051585
        ]
      }
    },
    {
      "type": "Feature",
      "properties": {
        "norad_id": 33944,
        "name": "COSMOS 2251 DEB",
        "group": "cosmos-2251-debris",
        "lat": -44.54394236715584,
        "lon": -70.87455850000113,
        "alt_km": 774.6481587396984,
        "timestamp": "2025-12-14T14:39:29.762269+00:00",
        "meta_object_name": "COSMOS 2251 DEB",
        "meta_object_id": "1993-036EZ",
        "meta_epoch": "2025-12-14T00:08:38.909760",
        "meta_mean_motion": 14.37346664,
        "meta_eccentricity": 0.01122221,
        "meta_inclination": 74.0403,
        "meta_ra_of_asc_node": 306.5963,
        "meta_arg_of_pericenter": 45.8675,
        "meta_mean_anomaly": 20.6331,
        "meta_ephemeris_type": 0,
        "meta_classification_type": "U",
        "meta_norad_cat_id": 33944,
        "meta_element_set_no": 999,
        "meta_rev_at_epoch": 88046,
        "meta_bstar": 0.00047609371,
        "meta_mean_motion_dot": 1.501e-05,
        "meta_mean_motion_ddot": 0,
        "tle_line1": "1 33944U 93036EZ  25348.00600590  .00001501  00000+0  47609-3 0  9991",
        "tle_line2": "2 33944  74.0403 306.5963 0112222  45.8675  20.6331 14.37346664880465"
      },
      "geometry": {
        "type": "Point",
        "coordinates": [
          -70.87455850000113,
          -44.54394236715584
        ]
      }
    },
    {
      "type": "Feature",
      "properties": {
        "norad_id": 33945,
        "name": "COSMOS 2251 DEB",
        "group": "cosmos-2251-debris",
        "lat": 73.99571347891063,
        "lon": 29.59737498805591,
        "alt_km": 761.187890891023,
        "timestamp": "2025-12-14T14:39:29.762279+00:00",
        "meta_object_name": "COSMOS 2251 DEB",
        "meta_object_id": "1993-036FA",
        "meta_epoch": "2025-12-13T23:11:01.183488",
        "meta_mean_motion": 14.34602127,
        "meta_eccentricity": 0.00219483,
        "meta_inclination": 74.0298,
        "meta_ra_of_asc_node": 304.02,
        "meta_arg_of_pericenter": 30.018,
        "meta_mean_anomaly": 330.2225,
        "meta_ephemeris_type": 0,
        "meta_classification_type": "U",
        "meta_norad_cat_id": 33945,
        "meta_element_set_no": 999,
        "meta_rev_at_epoch": 88033,
        "meta_bstar": 0.00019069067,
        "meta_mean_motion_dot": 5.14e-06,
        "meta_mean_motion_ddot": 0,
        "tle_line1": "1 33945U 93036FA  25347.96598592  .00000514  00000+0  19069-3 0  9996",
        "tle_line2": "2 33945  74.0298 304.0200 0021948  30.0180 330.2225 14.34602127880330"
      },
      "geometry": {
        "type": "Point",
        "coordinates": [
          29.59737498805591,
          73.99571347891063
        ]
      }
    },
    {
      "type": "Feature",
      "properties": {
        "norad_id": 33948,
        "name": "COSMOS 2251 DEB",
        "group": "cosmos-2251-debris",
        "lat": -52.45439964728943,
        "lon": -80.16482154449517,
        "alt_km": 774.6611615450583,
        "timestamp": "2025-12-14T14:39:29.762289+00:00",
        "meta_object_name": "COSMOS 2251 DEB",
        "meta_object_id": "1993-036FD",
        "meta_epoch": "2025-12-13T22:11:30.134976",
        "meta_mean_motion": 14.35631078,
        "meta_eccentricity": 0.00227681,
        "meta_inclination": 74.0357,
        "meta_ra_of_asc_node": 302.9598,
        "meta_arg_of_pericenter": 18.4872,
        "meta_mean_anomaly": 341.7103,
        "meta_ephemeris_type": 0,
        "meta_classification_type": "U",
        "meta_norad_cat_id": 33948,
        "meta_element_set_no": 999,
        "meta_rev_at_epoch": 88040,
        "meta_bstar": 0.00028150616,
        "meta_mean_motion_dot": 7.88e-06,
        "meta_mean_motion_ddot": 0,
        "tle_line1": "1 33948U 93036FD  25347.92465434  .00000788  00000+0  28151-3 0  9998",
        "tle_line2": "2 33948  74.0357 302.9598 0022768  18.4872 341.7103 14.35631078880403"
      },
      "geometry": {
        "type": "Point",
        "coordinates": [
          -80.16482154449517,
          -52.45439964728943
        ]
      }
    },
    {
      "type": "Feature",
      "properties": {
        "norad_id": 33971,
        "name": "COSMOS 2251 DEB",
        "group": "cosmos-2251-debris",
        "lat": 38.39829615235864,
        "lon": -96.60195533598637,
        "alt_km": 747.6326295353701,
        "timestamp": "2025-12-14T14:39:29.762299+00:00",
        "meta_object_name": "COSMOS 2251 DEB",
        "meta_object_id": "1993-036FE",
        "meta_epoch": "2025-12-13T23:32:37.438368",
        "meta_mean_motion": 14.39728175,
        "meta_eccentricity": 0.00185773,
        "meta_inclination": 74.0249,
        "meta_ra_of_asc_node": 251.4391,
        "meta_arg_of_pericenter": 351.6518,
        "meta_mean_anomaly": 25.7078,
        "meta_ephemeris_type": 0,
        "meta_classification_type": "U",
        "meta_norad_cat_id": 33971,
        "meta_element_set_no": 999,
        "meta_rev_at_epoch": 88157,
        "meta_bstar": 0.00037173973,
        "meta_mean_motion_dot": 1.14e-05,
        "meta_mean_motion_ddot": 0,
        "tle_line1": "1 33971U 93036FE  25347.98098887  .00001140  00000+0  37174-3 0  9992",
        "tle_line2": "2 33971  74.0249 251.4391 0018577 351.6518  25.7078 14.39728175881578"
      },
      "geometry": {
        "type": "Point",
        "coordinates": [
          -96.60195533598637,
          38.39829615235864
        ]
      }
    }
  ]
}